NORAD_CAT_ID,OBJECT_NAME,OBJECT_TYPE,EPOCH,MEAN_MOTION,ECCENTRICITY,INCLINATION,RA_OF_ASC_NODE,ARG_OF_PERICENTER,MEAN_ANOMALY,BSTAR,MEAN_MOTION_DOT,MEAN_MOTION_DDOT,TLE_LINE0,TLE_LINE1,TLE_LINE2,SEMIMAJOR_AXIS,PERIOD,APOGEE,PERIGEE,DECAYED
53934.0,STARLINK-4775,PAYLOAD,2024-03-08 11:01:19,15.08856704,0.0001048,53.2195,341.7905,77.0715,283.0394,9.385e-05,1.207e-05,0.0,0 STARLINK-4775,1 53934U 22119BA  24068.45925609  .00001207  00000-0  93850-4 0  9998,2 53934  53.2195 341.7905 0001048  77.0715 283.0394 15.08856704 81226,6917.829,95.436,540.419,538.969,0.0
53934.0,STARLINK-4775,PAYLOAD,2024-03-08 18:58:17,15.08827277,9.82e-05,53.2185,340.3041,95.814,264.2965,-3.6976e-05,-8.76e-06,0.0,0 STARLINK-4775,1 53934U 22119BA  24068.79047799 -.00000876  00000-0 -36976-4 0  9999,2 53934  53.2185 340.3041 0000982  95.8140 264.2965 15.08827277 81270,6917.919,95.438,540.464,539.105,0.0
53934.0,STARLINK-4775,PAYLOAD,2024-03-09 02:55:12,15.08838827,0.0001038,53.2186,338.8176,100.7846,259.3263,6.6203e-05,7.66e-06,0.0,0 STARLINK-4775,1 53934U 22119BA  24069.12166915  .00000766  00000-0  66203-4 0  9991,2 53934  53.2186 338.8176 0001038 100.7846 259.3263 15.08838827 81329,6917.884,95.438,540.467,539.031,0.0
53934.0,STARLINK-4775,PAYLOAD,2024-03-09 10:52:07,15.08849758,0.0001047,53.2178,337.3304,83.5165,276.5946,0.00019174,2.766e-05,0.0,0 STARLINK-4775,1 53934U 22119BA  24069.45286072  .00002766  00000-0  19174-3 0  9990,2 53934  53.2178 337.3304 0001047  83.5165 276.5946 15.08849758 81378,6917.851,95.437,540.44,538.991,0.0
53934.0,STARLINK-4775,PAYLOAD,2024-03-10 01:10:35,15.08840253,9.88e-05,53.2177,334.6548,80.7383,279.3721,-4.1028e-05,-9.41e-06,0.0,0 STARLINK-4775,1 53934U 22119BA  24070.04902476 -.00000941  00000-0 -41028-4 0  9999,2 53934  53.2177 334.6548 0000988  80.7383 279.3721 15.08840253 81464,6917.88,95.438,540.428,539.061,0.0
53934.0,STARLINK-4775,PAYLOAD,2024-03-10 10:42:54,15.08838594,0.0001151,53.2183,332.8713,78.8039,281.3083,-3.6883e-05,-8.75e-06,0.0,0 STARLINK-4775,1 53934U 22119BA  24070.44646692 -.00000875  00000-0 -36883-4 0  9997,2 53934  53.2183 332.8713 0001151  78.8039 281.3083 15.08838594 81968,6917.885,95.438,540.546,538.953,0.0
53934.0,STARLINK-4775,PAYLOAD,2024-03-10 21:50:37,15.08831567,0.0001204,53.219,330.7891,85.4902,274.6228,0.00012352,1.678e-05,0.0,0 STARLINK-4775,1 53934U 22119BA  24070.91015396  .00001678  00000-0  12352-3 0  9994,2 53934  53.2190 330.7891 0001204  85.4902 274.6228 15.08831567 82030,6917.906,95.438,540.604,538.938,0.0
53934.0,STARLINK-4775,PAYLOAD,2024-03-11 10:33:41,15.0885131,0.000111,53.2182,328.4105,84.9683,275.1436,0.00016468,2.335e-05,0.0,0 STARLINK-4775,1 53934U 22119BA  24071.44005981  .00002335  00000-0  16468-3 0  9995,2 53934  53.2182 328.4105 0001110  84.9683 275.1436 15.08851310 81673,6917.846,95.437,540.479,538.943,0.0
53934.0,STARLINK-4775,PAYLOAD,2024-03-11 16:55:15,15.08827945,0.0001748,53.2185,327.2198,86.4731,273.6461,-0.00020116,-3.487e-05,0.0,0 STARLINK-4775,1 53934U 22119BA  24071.70503695 -.00003487  00000-0 -20116-3 0  9995,2 53934  53.2185 327.2198 0001748  86.4731 273.6461 15.08827945 81716,6917.917,95.438,540.991,538.573,0.0
53934.0,STARLINK-4775,PAYLOAD,2024-03-12 10:24:29,15.08840382,0.0001581,53.218,323.9472,92.8095,267.3079,0.00010813,1.433e-05,0.0,0 STARLINK-4775,1 53934U 22119BA  24072.43366916  .00001433  00000-0  10813-3 0  9999,2 53934  53.2180 323.9472 0001581  92.8095 267.3079 15.08840382 81825,6917.879,95.438,540.838,538.651,0.0
53934.0,STARLINK-4775,PAYLOAD,2024-03-12 23:07:33,15.08843691,0.0001397,53.2163,321.568,96.6445,263.4706,0.00014561,2.03e-05,0.0,0 STARLINK-4775,1 53934U 22119BA  24072.96358528  .00002030  00000-0  14561-3 0  9995,2 53934  53.2163 321.5680 0001397  96.6445 263.4706 15.08843691 82345,6917.869,95.437,540.701,538.768,0.0
53934.0,STARLINK-4775,PAYLOAD,2024-03-13 02:18:20,15.08845176,0.0001271,53.2181,320.9742,93.6809,266.4328,4.2851e-05,3.94e-06,0.0,0 STARLINK-4775,1 53934U 22119BA  24073.09606666  .00000394  00000-0  42851-4 0  9994,2 53934  53.2181 320.9742 0001271  93.6809 266.4328 15.08845176 82364,6917.865,95.437,540.609,538.85,0.0
53934.0,STARLINK-4775,PAYLOAD,2024-03-13 22:58:23,15.08766667,0.0001793,53.2181,317.1078,100.4139,259.7055,0.0011913,0.00018684,0.0,0 STARLINK-4775,1 53934U 22119BA  24073.95721379  .00018684  00000-0  11913-2 0  9992,2 53934  53.2181 317.1078 0001793 100.4139 259.7055 15.08766667 82051,6918.105,95.442,541.21,538.729,0.0
53934.0,STARLINK-4775,PAYLOAD,2024-03-14 19:38:22,15.08835983,0.0001209,53.2164,313.2414,95.9695,264.1435,5.3949e-05,5.71e-06,0.0,0 STARLINK-4775,1 53934U 22119BA  24074.81831162  .00000571  00000-0  53949-4 0  9993,2 53934  53.2164 313.2414 0001209  95.9695 264.1435 15.08835983 82184,6917.893,95.438,540.594,538.921,0.0
53934.0,STARLINK-4775,PAYLOAD,2024-03-14 21:13:45,15.08835963,0.0001196,53.2165,312.9441,95.346,264.7668,5.1972e-05,5.39e-06,0.0,0 STARLINK-4775,1 53934U 22119BA  24074.88455170  .00000539  00000-0  51972-4 0  9999,2 53934  53.2165 312.9441 0001196  95.3460 264.7668 15.08835963 82632,6917.893,95.438,540.585,538.93,0.0
53934.0,STARLINK-4775,PAYLOAD,2024-03-15 22:39:55,15.08835952,0.0001116,53.2178,308.1861,107.145,252.9665,8.2192e-05,1.02e-05,0.0,0 STARLINK-4775,1 53934U 22119BA  24075.94439200  .00001020  00000-0  82192-4 0  9997,2 53934  53.2178 308.1861 0001116 107.1450 252.9665 15.08835952 82793,6917.893,95.438,540.53,538.986,0.0
53934.0,STARLINK-4775,PAYLOAD,2024-03-16 00:15:18,15.08836741,0.0001067,53.2175,307.8889,101.7201,258.3911,8.7628e-05,1.107e-05,0.0,0 STARLINK-4775,1 53934U 22119BA  24076.01063169  .00001107  00000-0  87628-4 0  9998,2 53934  53.2175 307.8889 0001067 101.7201 258.3911 15.08836741 82369,6917.89,95.438,540.493,539.017,0.0
53934.0,STARLINK-4775,PAYLOAD,2024-03-16 22:30:42,15.08838331,0.0001075,53.2166,303.7263,92.9228,267.1887,8.2351e-05,1.023e-05,0.0,0 STARLINK-4775,1 53934U 22119BA  24076.93799354  .00001023  00000-0  82351-4 0  9996,2 53934  53.2166 303.7263 0001075  92.9228 267.1887 15.08838331 82940,6917.885,95.438,540.494,539.007,0.0
53934.0,STARLINK-4775,PAYLOAD,2024-03-17 00:06:05,15.08839842,0.000112,53.217,303.4288,97.7399,262.372,9.4301e-05,1.213e-05,0.0,0 STARLINK-4775,1 53934U 22119BA  24077.00423225  .00001213  00000-0  94301-4 0  9995,2 53934  53.2170 303.4288 0001120  97.7399 262.3720 15.08839842 82954,6917.881,95.438,540.521,538.971,0.0
53934.0,STARLINK-4775,PAYLOAD,2024-03-17 20:46:06,15.08839055,0.0001365,53.218,299.5616,82.2003,277.9144,5.7624e-05,6.29e-06,0.0,0 STARLINK-4775,1 53934U 22119BA  24077.86535583  .00000629  00000-0  57624-4 0  9997,2 53934  53.2180 299.5616 0001365  82.2003 277.9144 15.08839055 82641,6917.883,95.438,540.693,538.804,0.0
53934.0,STARLINK-4775,PAYLOAD,2024-03-17 22:21:29,15.08839324,0.0001363,53.218,299.2653,81.4415,278.6731,5.981e-05,6.64e-06,0.0,0 STARLINK-4775,1 53934U 22119BA  24077.93159576  .00000664  00000-0  59810-4 0  9997,2 53934  53.2180 299.2653 0001363  81.4415 278.6731 15.08839324 83094,6917.882,95.438,540.69,538.805,0.0
53934.0,STARLINK-4775,PAYLOAD,2024-03-17 23:56:52,15.08840966,0.0001438,53.2185,298.9641,76.5635,283.5517,7.0466e-05,8.34e-06,0.0,0 STARLINK-4775,1 53934U 22119BA  24077.99783444  .00000834  00000-0  70466-4 0  9999,2 53934  53.2185 298.9641 0001438  76.5635 283.5517 15.08840966 83107,6917.877,95.437,540.737,538.748,0.0
53934.0,STARLINK-4775,PAYLOAD,2024-03-18 20:36:54,15.08828628,0.000135,53.2184,295.0947,108.2934,251.8205,-3.1226e-05,-7.85e-06,0.0,0 STARLINK-4775,1 53934U 22119BA  24078.85896810 -.00000785  00000-0 -31226-4 0  9995,2 53934  53.2184 295.0947 0001350 108.2934 251.8205 15.08828628 82798,6917.915,95.438,540.714,538.846,0.0
53934.0,STARLINK-4775,PAYLOAD,2024-03-19 20:27:40,15.08855751,0.0001278,53.2174,290.6411,104.5315,255.5819,0.00017958,2.572e-05,0.0,0 STARLINK-4775,1 53934U 22119BA  24079.85255022  .00002572  00000-0  17958-3 0  9999,2 53934  53.2174 290.6411 0001278 104.5315 255.5819 15.08855751 82941,6917.832,95.437,540.581,538.813,0.0
53934.0,STARLINK-4775,PAYLOAD,2024-03-20 20:18:28,15.08845508,0.0001027,53.2167,286.1843,90.8782,269.2328,0.00013573,1.873e-05,0.0,0 STARLINK-4775,1 53934U 22119BA  24080.84615846  .00001873  00000-0  13573-3 0  9996,2 53934  53.2167 286.1843 0001027  90.8782 269.2328 15.08845508 83092,6917.864,95.437,540.439,539.018,0.0
53934.0,STARLINK-4775,PAYLOAD,2024-03-20 23:29:14,15.08844673,0.0001049,53.2173,285.5877,83.7574,276.3538,0.00013353,1.838e-05,0.0,0 STARLINK-4775,1 53934U 22119BA  24080.97863873  .00001838  00000-0  13353-3 0  9992,2 53934  53.2173 285.5877 0001049  83.7574 276.3538 15.08844673 83558,6917.866,95.437,540.457,539.005,0.0
53934.0,STARLINK-4775,PAYLOAD,2024-03-21 20:09:15,15.08850872,0.0001173,53.2168,281.7201,100.375,259.7374,-4.2668e-05,-9.67e-06,0.0,0 STARLINK-4775,1 53934U 22119BA  24081.83975719 -.00000967  00000-0 -42668-4 0  9997,2 53934  53.2168 281.7201 0001173 100.3750 259.7374 15.08850872 83686,6917.847,95.437,540.524,538.901,0.0
53934.0,STARLINK-4775,PAYLOAD,2024-03-21 23:20:01,15.08853018,0.000112,53.2164,281.1237,101.2779,258.8339,-2.6566e-05,-7.11e-06,0.0,0 STARLINK-4775,1 53934U 22119BA  24081.97223399 -.00000711  00000-0 -26566-4 0  9998,2 53934  53.2164 281.1237 0001120 101.2779 258.8339 15.08853018 83268,6917.841,95.437,540.48,538.931,0.0
53934.0,STARLINK-4775,PAYLOAD,2024-03-22 20:00:02,15.08837951,0.0001204,53.2172,277.2567,83.3155,276.7974,4.1472e-05,3.72e-06,0.0,0 STARLINK-4775,1 53934U 22119BA  24082.83335957  .00000372  00000-0  41472-4 0  9992,2 53934  53.2172 277.2567 0001204  83.3155 276.7974 15.08837951 83396,6917.887,95.438,540.585,538.919,0.0
53934.0,STARLINK-4775,PAYLOAD,2024-03-23 19:50:49,15.08841452,0.000123,53.2172,272.8025,100.0937,260.0194,2.0732e-05,4.2e-07,0.0,0 STARLINK-4775,1 53934U 22119BA  24083.82695931  .00000042  00000-0  20732-4 0  9993,2 53934  53.2172 272.8025 0001230 100.0937 260.0194 15.08841452 83986,6917.876,95.437,540.592,538.89,0.0
